[{"OBJECT_NAME":"NUSAT-33 (ALBANIA-2)","OBJECT_ID":"2023-001AQ","EPOCH":"2026-03-09T22:33:27.663264","MEAN_MOTION":15.26923259,"ECCENTRICITY":0.00076854,"INCLINATION":97.3178,"RA_OF_ASC_NODE":131.8399,"ARG_OF_PERICENTER":52.546,"MEAN_ANOMALY":307.6477,"EPHEMERIS_TYPE":0,"CLASSIFICATION_TYPE":"U","NORAD_CAT_ID":55047,"ELEMENT_SET_NO":999,"REV_AT_EPOCH":17716,"BSTAR":0.0004947656,"MEAN_MOTION_DOT":0.00013029,"MEAN_MOTION_DDOT":0},{"OBJECT_NAME":"STARLINK-31088","OBJECT_ID":"2023-200R","EPOCH":"2026-03-09T22:00:01.999584","MEAN_MOTION":15.26761036,"ECCENTRICITY":0.00011014,"INCLINATION":43.0001,"RA_OF_ASC_NODE":167.2773,"ARG_OF_PERICENTER":270.833,"MEAN_ANOMALY":274.2761,"EPHEMERIS_TYPE":0,"CLASSIFICATION_TYPE":"U","NORAD_CAT_ID":58604,"ELEMENT_SET_NO":999,"REV_AT_EPOCH":573,"BSTAR":-0.00051166747,"MEAN_MOTION_DOT":-0.00013967,"MEAN_MOTION_DDOT":0}]
